STARLINK-36865
1 67930U 26036AC  26079.91668981 -.01733804  00000+0 -32723-1 0  9999
2 67930  43.0002 182.1727 0001572 294.5824 125.4542 15.50947095  5455
STARLINK-36781
1 67931U 26036AD  26079.91668981 -.01958036  00000+0 -37410-1 0  9994
2 67931  43.0004 182.2238 0001611 276.2455 123.4487 15.50471862  5457
STARLINK-36301
1 67932U 26037A   26079.83335648 -.01961360  00000+0 -18042-1 0  9992
2 67932  42.9995 130.4446 0001621 279.3024 111.8536 15.69825945  4908
STARLINK-36852
1 67933U 26037B   26079.83335648 -.02206206  00000+0 -39173-1 0  9993
2 67933  42.9998 131.1938 0001017 293.9911 155.5009 15.52908060  4993
STARLINK-36861
1 67934U 26037C   26079.83335648 -.01966977  00000+0 -21397-1 0  9990
2 67934  42.9993 130.5478 0001570 276.9764  73.0667 15.65780854  4999
STARLINK-36860
1 67935U 26037D   26079.83335648 -.01935044  00000+0 -28232-1 0  9997
2 67935  42.9995 130.8580 0001212 275.5320 309.5483 15.58273080  4998
STARLINK-36848
1 67936U 26037E   26079.83335648 -.01922039  00000+0 -30776-1 0  9994
2 67936  42.9998 130.9683 0001271 282.6029 257.6443 15.55787948  4996
STARLINK-36370
1 67937U 26037F   26079.83335648 -.01927700  00000+0 -27180-1 0  9990
2 67937  42.9990 130.8037 0001165 269.9783 337.1591 15.59151733  4997
STARLINK-36371
1 67938U 26037G   26079.83335648 -.01962986  00000+0 -23817-1 0  9999
2 67938  42.9991 130.6059 0001487 269.9176  55.9088 15.63056370  4996
STARLINK-36246
1 67939U 26037H   26079.83335648 -.01927655  00000+0 -29956-1 0  9994
2 67939  42.9990 130.9025 0001285 271.2811 295.4438 15.56594770  4904
STARLINK-36907
1 67940U 26037J   26079.83335648 -.01968603  00000+0 -19566-1 0  9990
2 67940  42.9995 130.3887 0001459 278.6982 134.3245 15.67985452  4993
STARLINK-36927
1 67941U 26037K   26079.83335648 -.01964708  00000+0 -21896-1 0  9992
2 67941  42.9996 130.4599 0001512 276.3070 107.9168 15.65179738  4999
STARLINK-36914
1 67942U 26037L   26079.83335648 -.01969899  00000+0 -16415-1 0  9990
2 67942  42.9996 130.3026 0001361 283.4098 164.1275 15.72165914  4998
STARLINK-36851
1 67943U 26037M   26079.83335648 -.01955095  00000+0 -20925-1 0  9995
2 67943  42.9993 130.4576 0001414 275.5166 109.8141 15.66161785  4997
STARLINK-36892
1 67944U 26037N   26079.83335648 -.01966015  00000+0 -20370-1 0  9994
2 67944  42.9994 130.4100 0001528 277.7756 126.8182 15.66972257  4995
STARLINK-36908
1 67945U 26037P   26079.83335648 -.01966007  00000+0 -19677-1 0  9994
2 67945  42.9995 130.3614 0001380 282.2445 141.4914 15.67812981  4992
