[{"OBJECT_NAME":"STARLINK-36865","OBJECT_ID":"2026-036AC","EPOCH":"2026-03-20T22:00:01.999584","MEAN_MOTION":15.50947095,"ECCENTRICITY":0.00015726,"INCLINATION":43.0002,"RA_OF_ASC_NODE":182.1727,"ARG_OF_PERICENTER":294.5824,"MEAN_ANOMALY":125.4542,"EPHEMERIS_TYPE":0,"CLASSIFICATION_TYPE":"U","NORAD_CAT_ID":67930,"ELEMENT_SET_NO":999,"REV_AT_EPOCH":545,"BSTAR":-0.032723373,"MEAN_MOTION_DOT":-0.01733804,"MEAN_MOTION_DDOT":0},{"OBJECT_NAME":"STARLINK-36781","OBJECT_ID":"2026-036AD","EPOCH":"2026-03-20T22:00:01.999584","MEAN_MOTION":15.50471862,"ECCENTRICITY":0.00016119,"INCLINATION":43.0004,"RA_OF_ASC_NODE":182.2238,"ARG_OF_PERICENTER":276.2455,"MEAN_ANOMALY":123.4487,"EPHEMERIS_TYPE":0,"CLASSIFICATION_TYPE":"U","NORAD_CAT_ID":67931,"ELEMENT_SET_NO":999,"REV_AT_EPOCH":545,"BSTAR":-0.037410485,"MEAN_MOTION_DOT":-0.01958036,"MEAN_MOTION_DDOT":0},{"OBJECT_NAME":"STARLINK-36301","OBJECT_ID":"2026-037A","EPOCH":"2026-03-20T20:00:01.999872","MEAN_MOTION":15.69825945,"ECCENTRICITY":0.0001621,"INCLINATION":42.9995,"RA_OF_ASC_NODE":130.4446,"ARG_OF_PERICENTER":279.3024,"MEAN_ANOMALY":111.8536,"EPHEMERIS_TYPE":0,"CLASSIFICATION_TYPE":"U","NORAD_CAT_ID":67932,"ELEMENT_SET_NO":999,"REV_AT_EPOCH":490,"BSTAR":-0.018041846,"MEAN_MOTION_DOT":-0.0196136,"MEAN_MOTION_DDOT":0},{"OBJECT_NAME":"STARLINK-36852","OBJECT_ID":"2026-037B","EPOCH":"2026-03-20T20:00:01.999872","MEAN_MOTION":15.5290806,"ECCENTRICITY":0.00010173,"INCLINATION":42.9998,"RA_OF_ASC_NODE":131.1938,"ARG_OF_PERICENTER":293.9911,"MEAN_ANOMALY":155.5009,"EPHEMERIS_TYPE":0,"CLASSIFICATION_TYPE":"U","NORAD_CAT_ID":67933,"ELEMENT_SET_NO":999,"REV_AT_EPOCH":499,"BSTAR":-0.039173375,"MEAN_MOTION_DOT":-0.02206206,"MEAN_MOTION_DDOT":0},{"OBJECT_NAME":"STARLINK-36861","OBJECT_ID":"2026-037C","EPOCH":"2026-03-20T20:00:01.999872","MEAN_MOTION":15.65780854,"ECCENTRICITY":0.00015701,"INCLINATION":42.9993,"RA_OF_ASC_NODE":130.5478,"ARG_OF_PERICENTER":276.9764,"MEAN_ANOMALY":73.0667,"EPHEMERIS_TYPE":0,"CLASSIFICATION_TYPE":"U","NORAD_CAT_ID":67934,"ELEMENT_SET_NO":999,"REV_AT_EPOCH":499,"BSTAR":-0.021396768,"MEAN_MOTION_DOT":-0.01966977,"MEAN_MOTION_DDOT":0},{"OBJECT_NAME":"STARLINK-36860","OBJECT_ID":"2026-037D","EPOCH":"2026-03-20T20:00:01.999872","MEAN_MOTION":15.5827308,"ECCENTRICITY":0.00012129,"INCLINATION":42.9995,"RA_OF_ASC_NODE":130.858,"ARG_OF_PERICENTER":275.532,"MEAN_ANOMALY":309.5483,"EPHEMERIS_TYPE":0,"CLASSIFICATION_TYPE":"U","NORAD_CAT_ID":67935,"ELEMENT_SET_NO":999,"REV_AT_EPOCH":499,"BSTAR":-0.028231797,"MEAN_MOTION_DOT":-0.01935044,"MEAN_MOTION_DDOT":0},{"OBJECT_NAME":"STARLINK-36848","OBJECT_ID":"2026-037E","EPOCH":"2026-03-20T20:00:01.999872","MEAN_MOTION":15.55787948,"ECCENTRICITY":0.00012711,"INCLINATION":42.9998,"RA_OF_ASC_NODE":130.9683,"ARG_OF_PERICENTER":282.6029,"MEAN_ANOMALY":257.6443,"EPHEMERIS_TYPE":0,"CLASSIFICATION_TYPE":"U","NORAD_CAT_ID":67936,"ELEMENT_SET_NO":999,"REV_AT_EPOCH":499,"BSTAR":-0.030775652,"MEAN_MOTION_DOT":-0.01922039,"MEAN_MOTION_DDOT":0},{"OBJECT_NAME":"STARLINK-36370","OBJECT_ID":"2026-037F","EPOCH":"2026-03-20T20:00:01.999872","MEAN_MOTION":15.59151733,"ECCENTRICITY":0.00011655,"INCLINATION":42.999,"RA_OF_ASC_NODE":130.8037,"ARG_OF_PERICENTER":269.9783,"MEAN_ANOMALY":337.1591,"EPHEMERIS_TYPE":0,"CLASSIFICATION_TYPE":"U","NORAD_CAT_ID":67937,"ELEMENT_SET_NO":999,"REV_AT_EPOCH":499,"BSTAR":-0.027179967,"MEAN_MOTION_DOT":-0.019277,"MEAN_MOTION_DDOT":0},{"OBJECT_NAME":"STARLINK-36371","OBJECT_ID":"2026-037G","EPOCH":"2026-03-20T20:00:01.999872","MEAN_MOTION":15.6305637,"ECCENTRICITY":0.00014875,"INCLINATION":42.9991,"RA_OF_ASC_NODE":130.6059,"ARG_OF_PERICENTER":269.9176,"MEAN_ANOMALY":55.9088,"EPHEMERIS_TYPE":0,"CLASSIFICATION_TYPE":"U","NORAD_CAT_ID":67938,"ELEMENT_SET_NO":999,"REV_AT_EPOCH":499,"BSTAR":-0.023816995,"MEAN_MOTION_DOT":-0.01962986,"MEAN_MOTION_DDOT":0},{"OBJECT_NAME":"STARLINK-36246","OBJECT_ID":"2026-037H","EPOCH":"2026-03-20T20:00:01.999872","MEAN_MOTION":15.5659477,"ECCENTRICITY":0.00012851,"INCLINATION":42.999,"RA_OF_ASC_NODE":130.9025,"ARG_OF_PERICENTER":271.2811,"MEAN_ANOMALY":295.4438,"EPHEMERIS_TYPE":0,"CLASSIFICATION_TYPE":"U","NORAD_CAT_ID":67939,"ELEMENT_SET_NO":999,"REV_AT_EPOCH":490,"BSTAR":-0.029955997,"MEAN_MOTION_DOT":-0.01927655,"MEAN_MOTION_DDOT":0},{"OBJECT_NAME":"STARLINK-36907","OBJECT_ID":"2026-037J","EPOCH":"2026-03-20T20:00:01.999872","MEAN_MOTION":15.67985452,"ECCENTRICITY":0.00014595,"INCLINATION":42.9995,"RA_OF_ASC_NODE":130.3887,"ARG_OF_PERICENTER":278.6982,"MEAN_ANOMALY":134.3245,"EPHEMERIS_TYPE":0,"CLASSIFICATION_TYPE":"U","NORAD_CAT_ID":67940,"ELEMENT_SET_NO":999,"REV_AT_EPOCH":499,"BSTAR":-0.019565954,"MEAN_MOTION_DOT":-0.01968603,"MEAN_MOTION_DDOT":0},{"OBJECT_NAME":"STARLINK-36927","OBJECT_ID":"2026-037K","EPOCH":"2026-03-20T20:00:01.999872","MEAN_MOTION":15.65179738,"ECCENTRICITY":0.00015128,"INCLINATION":42.9996,"RA_OF_ASC_NODE":130.4599,"ARG_OF_PERICENTER":276.307,"MEAN_ANOMALY":107.9168,"EPHEMERIS_TYPE":0,"CLASSIFICATION_TYPE":"U","NORAD_CAT_ID":67941,"ELEMENT_SET_NO":999,"REV_AT_EPOCH":499,"BSTAR":-0.021896277,"MEAN_MOTION_DOT":-0.01964708,"MEAN_MOTION_DDOT":0},{"OBJECT_NAME":"STARLINK-36914","OBJECT_ID":"2026-037L","EPOCH":"2026-03-20T20:00:01.999872","MEAN_MOTION":15.72165914,"ECCENTRICITY":0.00013617,"INCLINATION":42.9996,"RA_OF_ASC_NODE":130.3026,"ARG_OF_PERICENTER":283.4098,"MEAN_ANOMALY":164.1275,"EPHEMERIS_TYPE":0,"CLASSIFICATION_TYPE":"U","NORAD_CAT_ID":67942,"ELEMENT_SET_NO":999,"REV_AT_EPOCH":499,"BSTAR":-0.016414851,"MEAN_MOTION_DOT":-0.01969899,"MEAN_MOTION_DDOT":0},{"OBJECT_NAME":"STARLINK-36851","OBJECT_ID":"2026-037M","EPOCH":"2026-03-20T20:00:01.999872","MEAN_MOTION":15.66161785,"ECCENTRICITY":0.00014142,"INCLINATION":42.9993,"RA_OF_ASC_NODE":130.4576,"ARG_OF_PERICENTER":275.5166,"MEAN_ANOMALY":109.8141,"EPHEMERIS_TYPE":0,"CLASSIFICATION_TYPE":"U","NORAD_CAT_ID":67943,"ELEMENT_SET_NO":999,"REV_AT_EPOCH":499,"BSTAR":-0.020924688,"MEAN_MOTION_DOT":-0.01955095,"MEAN_MOTION_DDOT":0},{"OBJECT_NAME":"STARLINK-36892","OBJECT_ID":"2026-037N","EPOCH":"2026-03-20T20:00:01.999872","MEAN_MOTION":15.66972257,"ECCENTRICITY":0.00015285,"INCLINATION":42.9994,"RA_OF_ASC_NODE":130.41,"ARG_OF_PERICENTER":277.7756,"MEAN_ANOMALY":126.8182,"EPHEMERIS_TYPE":0,"CLASSIFICATION_TYPE":"U","NORAD_CAT_ID":67944,"ELEMENT_SET_NO":999,"REV_AT_EPOCH":499,"BSTAR":-0.02036963,"MEAN_MOTION_DOT":-0.01966015,"MEAN_MOTION_DDOT":0},{"OBJECT_NAME":"STARLINK-36908","OBJECT_ID":"2026-037P","EPOCH":"2026-03-20T20:00:01.999872","MEAN_MOTION":15.67812981,"ECCENTRICITY":0.00013805,"INCLINATION":42.9995,"RA_OF_ASC_NODE":130.3614,"ARG_OF_PERICENTER":282.2445,"MEAN_ANOMALY":141.4914,"EPHEMERIS_TYPE":0,"CLASSIFICATION_TYPE":"U","NORAD_CAT_ID":67945,"ELEMENT_SET_NO":999,"REV_AT_EPOCH":499,"BSTAR":-0.019677325,"MEAN_MOTION_DOT":-0.01966007,"MEAN_MOTION_DDOT":0}]
